[{"CCSDS_OMM_VERS":"3.0","COMMENT":"GENERATED VIA SPACE-TRACK.ORG API","CREATION_DATE":"2026-05-30T07:26:56","ORIGINATOR":"18 SPCS","OBJECT_NAME":"QZS-2","OBJECT_ID":"2017-028A","CENTER_NAME":"EARTH","REF_FRAME":"TEME","TIME_SYSTEM":"UTC","MEAN_ELEMENT_THEORY":"SGP4","EPOCH":"2026-05-29T13:18:27.821088","MEAN_MOTION":"1.00288760","ECCENTRICITY":"0.07611770","INCLINATION":"39.4567","RA_OF_ASC_NODE":"243.4296","ARG_OF_PERICENTER":"269.0517","MEAN_ANOMALY":"75.0389","EPHEMERIS_TYPE":"0","CLASSIFICATION_TYPE":"U","NORAD_CAT_ID":"42738","ELEMENT_SET_NO":"999","REV_AT_EPOCH":"743","BSTAR":"0.00000000000000","MEAN_MOTION_DOT":"-0.00000191","MEAN_MOTION_DDOT":"0.0000000000000","SEMIMAJOR_AXIS":"42159.974","PERIOD":"1435.854","APOAPSIS":"38990.959","PERIAPSIS":"32572.719","OBJECT_TYPE":"PAYLOAD","RCS_SIZE":"LARGE","COUNTRY_CODE":"JPN","LAUNCH_DATE":"2017-06-01","SITE":"TNSTA","DECAY_DATE":null,"FILE":"5221692","GP_ID":"325909933","TLE_LINE0":"0 QZS-2","TLE_LINE1":"1 42738U 17028A   26149.55448867 -.00000191  00000-0  00000+0 0  9992","TLE_LINE2":"2 42738  39.4567 243.4296 0761177 269.0517  75.0389  1.00288760  7437"},{"CCSDS_OMM_VERS":"3.0","COMMENT":"GENERATED VIA SPACE-TRACK.ORG API","CREATION_DATE":"2026-05-31T06:06:41","ORIGINATOR":"18 SPCS","OBJECT_NAME":"QZS-2","OBJECT_ID":"2017-028A","CENTER_NAME":"EARTH","REF_FRAME":"TEME","TIME_SYSTEM":"UTC","MEAN_ELEMENT_THEORY":"SGP4","EPOCH":"2026-05-30T13:41:38.690016","MEAN_MOTION":"1.00288482","ECCENTRICITY":"0.07612143","INCLINATION":"39.4552","RA_OF_ASC_NODE":"243.4145","ARG_OF_PERICENTER":"269.0616","MEAN_ANOMALY":"81.8956","EPHEMERIS_TYPE":"0","CLASSIFICATION_TYPE":"U","NORAD_CAT_ID":"42738","ELEMENT_SET_NO":"999","REV_AT_EPOCH":"744","BSTAR":"0.00000000000000","MEAN_MOTION_DOT":"-0.00000182","MEAN_MOTION_DDOT":"0.0000000000000","SEMIMAJOR_AXIS":"42160.052","PERIOD":"1435.858","APOAPSIS":"38991.200","PERIAPSIS":"32572.633","OBJECT_TYPE":"PAYLOAD","RCS_SIZE":"LARGE","COUNTRY_CODE":"JPN","LAUNCH_DATE":"2017-06-01","SITE":"TNSTA","DECAY_DATE":null,"FILE":"5223946","GP_ID":"326204185","TLE_LINE0":"0 QZS-2","TLE_LINE1":"1 42738U 17028A   26150.57058669 -.00000182  00000-0  00000-0 0  9994","TLE_LINE2":"2 42738  39.4552 243.4145 0761214 269.0616  81.8956  1.00288482  7443"},{"CCSDS_OMM_VERS":"3.0","COMMENT":"GENERATED VIA SPACE-TRACK.ORG API","CREATION_DATE":"2026-05-30T23:56:33","ORIGINATOR":"18 SPCS","OBJECT_NAME":"QZS-2","OBJECT_ID":"2017-028A","CENTER_NAME":"EARTH","REF_FRAME":"TEME","TIME_SYSTEM":"UTC","MEAN_ELEMENT_THEORY":"SGP4","EPOCH":"2026-05-30T13:41:38.690016","MEAN_MOTION":"1.00288482","ECCENTRICITY":"0.07612140","INCLINATION":"39.4552","RA_OF_ASC_NODE":"243.4145","ARG_OF_PERICENTER":"269.0616","MEAN_ANOMALY":"81.8956","EPHEMERIS_TYPE":"0","CLASSIFICATION_TYPE":"U","NORAD_CAT_ID":"42738","ELEMENT_SET_NO":"999","REV_AT_EPOCH":"744","BSTAR":"0.00000000000000","MEAN_MOTION_DOT":"-0.00000182","MEAN_MOTION_DDOT":"0.0000000000000","SEMIMAJOR_AXIS":"42160.052","PERIOD":"1435.858","APOAPSIS":"38991.199","PERIAPSIS":"32572.635","OBJECT_TYPE":"PAYLOAD","RCS_SIZE":"LARGE","COUNTRY_CODE":"JPN","LAUNCH_DATE":"2017-06-01","SITE":"TNSTA","DECAY_DATE":null,"FILE":"5223373","GP_ID":"326134822","TLE_LINE0":"0 QZS-2","TLE_LINE1":"1 42738U 17028A   26150.57058669 -.00000182  00000-0  00000+0 0  9993","TLE_LINE2":"2 42738  39.4552 243.4145 0761214 269.0616  81.8956  1.00288482  7443"},{"CCSDS_OMM_VERS":"3.0","COMMENT":"GENERATED VIA SPACE-TRACK.ORG API","CREATION_DATE":"2026-06-02T07:37:26","ORIGINATOR":"18 SPCS","OBJECT_NAME":"QZS-2","OBJECT_ID":"2017-028A","CENTER_NAME":"EARTH","REF_FRAME":"TEME","TIME_SYSTEM":"UTC","MEAN_ELEMENT_THEORY":"SGP4","EPOCH":"2026-06-01T12:42:00.409824","MEAN_MOTION":"1.00288013","ECCENTRICITY":"0.07599818","INCLINATION":"39.4518","RA_OF_ASC_NODE":"243.3854","ARG_OF_PERICENTER":"269.0971","MEAN_ANOMALY":"69.0278","EPHEMERIS_TYPE":"0","CLASSIFICATION_TYPE":"U","NORAD_CAT_ID":"42738","ELEMENT_SET_NO":"999","REV_AT_EPOCH":"746","BSTAR":"0.00000000000000","MEAN_MOTION_DOT":"-0.00000168","MEAN_MOTION_DDOT":"0.0000000000000","SEMIMAJOR_AXIS":"42160.183","PERIOD":"1435.865","APOAPSIS":"38986.145","PERIAPSIS":"32577.951","OBJECT_TYPE":"PAYLOAD","RCS_SIZE":"LARGE","COUNTRY_CODE":"JPN","LAUNCH_DATE":"2017-06-01","SITE":"TNSTA","DECAY_DATE":null,"FILE":"5227263","GP_ID":"326608855","TLE_LINE0":"0 QZS-2","TLE_LINE1":"1 42738U 17028A   26152.52917141 -.00000168  00000-0  00000-0 0  9994","TLE_LINE2":"2 42738  39.4518 243.3854 0759982 269.0971  69.0278  1.00288013  7461"},{"CCSDS_OMM_VERS":"3.0","COMMENT":"GENERATED VIA SPACE-TRACK.ORG API","CREATION_DATE":"2026-06-01T18:19:01","ORIGINATOR":"18 SPCS","OBJECT_NAME":"QZS-2","OBJECT_ID":"2017-028A","CENTER_NAME":"EARTH","REF_FRAME":"TEME","TIME_SYSTEM":"UTC","MEAN_ELEMENT_THEORY":"SGP4","EPOCH":"2026-06-01T12:42:00.409824","MEAN_MOTION":"1.00288013","ECCENTRICITY":"0.07599818","INCLINATION":"39.4518","RA_OF_ASC_NODE":"243.3854","ARG_OF_PERICENTER":"269.0971","MEAN_ANOMALY":"69.0278","EPHEMERIS_TYPE":"0","CLASSIFICATION_TYPE":"U","NORAD_CAT_ID":"42738","ELEMENT_SET_NO":"999","REV_AT_EPOCH":"746","BSTAR":"0.00000000000000","MEAN_MOTION_DOT":"-0.00000168","MEAN_MOTION_DDOT":"0.0000000000000","SEMIMAJOR_AXIS":"42160.183","PERIOD":"1435.865","APOAPSIS":"38986.145","PERIAPSIS":"32577.951","OBJECT_TYPE":"PAYLOAD","RCS_SIZE":"LARGE","COUNTRY_CODE":"JPN","LAUNCH_DATE":"2017-06-01","SITE":"TNSTA","DECAY_DATE":null,"FILE":"5227192","GP_ID":"326575033","TLE_LINE0":"0 QZS-2","TLE_LINE1":"1 42738U 17028A   26152.52917141 -.00000168  00000-0  00000-0 0  9994","TLE_LINE2":"2 42738  39.4518 243.3854 0759982 269.0971  69.0278  1.00288013  7461"},{"CCSDS_OMM_VERS":"3.0","COMMENT":"GENERATED VIA SPACE-TRACK.ORG API","CREATION_DATE":"2026-06-03T03:08:42","ORIGINATOR":"18 SPCS","OBJECT_NAME":"QZS-2","OBJECT_ID":"2017-028A","CENTER_NAME":"EARTH","REF_FRAME":"TEME","TIME_SYSTEM":"UTC","MEAN_ELEMENT_THEORY":"SGP4","EPOCH":"2026-06-02T13:32:51.927360","MEAN_MOTION":"1.00287742","ECCENTRICITY":"0.07600402","INCLINATION":"39.4502","RA_OF_ASC_NODE":"243.3700","ARG_OF_PERICENTER":"269.1087","MEAN_ANOMALY":"82.8191","EPHEMERIS_TYPE":"0","CLASSIFICATION_TYPE":"U","NORAD_CAT_ID":"42738","ELEMENT_SET_NO":"999","REV_AT_EPOCH":"748","BSTAR":"0.00000000000000","MEAN_MOTION_DOT":"-0.00000162","MEAN_MOTION_DDOT":"0.0000000000000","SEMIMAJOR_AXIS":"42160.259","PERIOD":"1435.868","APOAPSIS":"38986.474","PERIAPSIS":"32577.775","OBJECT_TYPE":"PAYLOAD","RCS_SIZE":"LARGE","COUNTRY_CODE":"JPN","LAUNCH_DATE":"2017-06-01","SITE":"TNSTA","DECAY_DATE":null,"FILE":"5227853","GP_ID":"326759883","TLE_LINE0":"0 QZS-2","TLE_LINE1":"1 42738U 17028A   26153.56448990 -.00000162  00000-0  00000-0 0  9994","TLE_LINE2":"2 42738  39.4502 243.3700 0760040 269.1087  82.8191  1.00287742  7487"},{"CCSDS_OMM_VERS":"3.0","COMMENT":"GENERATED VIA SPACE-TRACK.ORG API","CREATION_DATE":"2026-06-02T22:26:32","ORIGINATOR":"18 SPCS","OBJECT_NAME":"QZS-2","OBJECT_ID":"2017-028A","CENTER_NAME":"EARTH","REF_FRAME":"TEME","TIME_SYSTEM":"UTC","MEAN_ELEMENT_THEORY":"SGP4","EPOCH":"2026-06-02T13:32:51.927360","MEAN_MOTION":"1.00287742","ECCENTRICITY":"0.07600400","INCLINATION":"39.4502","RA_OF_ASC_NODE":"243.3700","ARG_OF_PERICENTER":"269.1087","MEAN_ANOMALY":"82.8191","EPHEMERIS_TYPE":"0","CLASSIFICATION_TYPE":"U","NORAD_CAT_ID":"42738","ELEMENT_SET_NO":"999","REV_AT_EPOCH":"748","BSTAR":"0.00000000000000","MEAN_MOTION_DOT":"-0.00000162","MEAN_MOTION_DDOT":"0.0000000000000","SEMIMAJOR_AXIS":"42160.259","PERIOD":"1435.868","APOAPSIS":"38986.473","PERIAPSIS":"32577.776","OBJECT_TYPE":"PAYLOAD","RCS_SIZE":"LARGE","COUNTRY_CODE":"JPN","LAUNCH_DATE":"2017-06-01","SITE":"TNSTA","DECAY_DATE":null,"FILE":"5227455","GP_ID":"326710513","TLE_LINE0":"0 QZS-2","TLE_LINE1":"1 42738U 17028A   26153.56448990 -.00000162  00000-0  00000+0 0  9993","TLE_LINE2":"2 42738  39.4502 243.3700 0760040 269.1087  82.8191  1.00287742  7487"},{"CCSDS_OMM_VERS":"3.0","COMMENT":"GENERATED VIA SPACE-TRACK.ORG API","CREATION_DATE":"2026-06-03T21:59:02","ORIGINATOR":"18 SPCS","OBJECT_NAME":"QZS-2","OBJECT_ID":"2017-028A","CENTER_NAME":"EARTH","REF_FRAME":"TEME","TIME_SYSTEM":"UTC","MEAN_ELEMENT_THEORY":"SGP4","EPOCH":"2026-06-03T14:37:16.987296","MEAN_MOTION":"1.00287507","ECCENTRICITY":"0.07595905","INCLINATION":"39.4485","RA_OF_ASC_NODE":"243.3546","ARG_OF_PERICENTER":"269.1264","MEAN_ANOMALY":"100.0088","EPHEMERIS_TYPE":"0","CLASSIFICATION_TYPE":"U","NORAD_CAT_ID":"42738","ELEMENT_SET_NO":"999","REV_AT_EPOCH":"749","BSTAR":"0.00000000000000","MEAN_MOTION_DOT":"-0.00000158","MEAN_MOTION_DDOT":"0.0000000000000","SEMIMAJOR_AXIS":"42160.325","PERIOD":"1435.872","APOAPSIS":"38984.648","PERIAPSIS":"32579.732","OBJECT_TYPE":"PAYLOAD","RCS_SIZE":"LARGE","COUNTRY_CODE":"JPN","LAUNCH_DATE":"2017-06-01","SITE":"TNSTA","DECAY_DATE":null,"FILE":"5228922","GP_ID":"326927381","TLE_LINE0":"0 QZS-2","TLE_LINE1":"1 42738U 17028A   26154.60922439 -.00000158  00000-0  00000-0 0  9990","TLE_LINE2":"2 42738  39.4485 243.3546 0759590 269.1264 100.0088  1.00287507  7498"}]